{
  "type": "FeatureCollection",
  "features": [
    {
      "type": "Feature",
      "properties": {
        "norad_id": 30571,
        "name": "FENGYUN 1C DEB",
        "group": "fengyun-1c-debris",
        "lat": 41.48544304968061,
        "lon": -163.4009885740876,
        "alt_km": 858.3682653680016,
        "timestamp": "2025-12-08T10:52:03.224986+00:00",
        "meta_object_name": "FENGYUN 1C DEB",
        "meta_object_id": "1999-025ALM",
        "meta_epoch": "2025-12-07T19:44:11.192928",
        "meta_mean_motion": 14.10688675,
        "meta_eccentricity": 0.00206046,
        "meta_inclination": 98.7316,
        "meta_ra_of_asc_node": 8.176,
        "meta_arg_of_pericenter": 248.2859,
        "meta_mean_anomaly": 289.7649,
        "meta_ephemeris_type": 0,
        "meta_classification_type": "U",
        "meta_norad_cat_id": 30571,
        "meta_element_set_no": 999,
        "meta_rev_at_epoch": 96817,
        "meta_bstar": 0.00047899548,
        "meta_mean_motion_dot": 8.14e-06,
        "meta_mean_motion_ddot": 0,
        "tle_line1": "1 30571U 99025ALM 25341.82235177  .00000814  00000+0  47900-3 0  9996",
        "tle_line2": "2 30571  98.7316   8.1760 0020604 248.2859 289.7649 14.10688675968176"
      },
      "geometry": {
        "type": "Point",
        "coordinates": [
          -163.4009885740876,
          41.48544304968061
        ]
      }
    },
    {
      "type": "Feature",
      "properties": {
        "norad_id": 30572,
        "name": "FENGYUN 1C DEB",
        "group": "fengyun-1c-debris",
        "lat": 69.93767300864268,
        "lon": -12.822198077993482,
        "alt_km": 865.2121282191656,
        "timestamp": "2025-12-08T10:52:03.224996+00:00",
        "meta_object_name": "FENGYUN 1C DEB",
        "meta_object_id": "1999-025ALN",
        "meta_epoch": "2025-12-07T16:22:50.797632",
        "meta_mean_motion": 14.08914273,
        "meta_eccentricity": 0.00212689,
        "meta_inclination": 98.7726,
        "meta_ra_of_asc_node": 11.4411,
        "meta_arg_of_pericenter": 308.5321,
        "meta_mean_anomaly": 178.4188,
        "meta_ephemeris_type": 0,
        "meta_classification_type": "U",
        "meta_norad_cat_id": 30572,
        "meta_element_set_no": 999,
        "meta_rev_at_epoch": 96690,
        "meta_bstar": 0.00056179464,
        "meta_mean_motion_dot": 9.3e-06,
        "meta_mean_motion_ddot": 0,
        "tle_line1": "1 30572U 99025ALN 25341.68253238  .00000930  00000+0  56179-3 0  9996",
        "tle_line2": "2 30572  98.7726  11.4411 0021268 308.5321 178.4188 14.08914273966907"
      },
      "geometry": {
        "type": "Point",
        "coordinates": [
          -12.822198077993482,
          69.93767300864268
        ]
      }
    },
    {
      "type": "Feature",
      "properties": {
        "norad_id": 30573,
        "name": "FENGYUN 1C DEB",
        "group": "fengyun-1c-debris",
        "lat": -72.16372454790404,
        "lon": 50.3934424570473,
        "alt_km": 790.0141915873783,
        "timestamp": "2025-12-08T10:52:03.225007+00:00",
        "meta_object_name": "FENGYUN 1C DEB",
        "meta_object_id": "1999-025ALP",
        "meta_epoch": "2025-12-06T15:38:31.953408",
        "meta_mean_motion": 14.1377619,
        "meta_eccentricity": 0.00881043,
        "meta_inclination": 99.2263,
        "meta_ra_of_asc_node": 18.1944,
        "meta_arg_of_pericenter": 290.9852,
        "meta_mean_anomaly": 192.7283,
        "meta_ephemeris_type": 0,
        "meta_classification_type": "U",
        "meta_norad_cat_id": 30573,
        "meta_element_set_no": 999,
        "meta_rev_at_epoch": 96111,
        "meta_bstar": 0.0029611544,
        "meta_mean_motion_dot": 5.77e-05,
        "meta_mean_motion_ddot": 0,
        "tle_line1": "1 30573U 99025ALP 25340.65175872  .00005770  00000+0  29612-2 0  9998",
        "tle_line2": "2 30573  99.2263  18.1944 0088104 290.9852 192.7283 14.13776190961113"
      },
      "geometry": {
        "type": "Point",
        "coordinates": [
          50.3934424570473,
          -72.16372454790404
        ]
      }
    },
    {
      "type": "Feature",
      "properties": {
        "norad_id": 30574,
        "name": "FENGYUN 1C DEB",
        "group": "fengyun-1c-debris",
        "lat": 58.797836908849845,
        "lon": 130.4283493457953,
        "alt_km": 887.0751358949865,
        "timestamp": "2025-12-08T10:52:03.225017+00:00",
        "meta_object_name": "FENGYUN 1C DEB",
        "meta_object_id": "1999-025ALQ",
        "meta_epoch": "2025-12-07T10:10:57.366912",
        "meta_mean_motion": 13.77485248,
        "meta_eccentricity": 0.02188431,
        "meta_inclination": 99.3038,
        "meta_ra_of_asc_node": 145.1236,
        "meta_arg_of_pericenter": 1.5584,
        "meta_mean_anomaly": 358.6203,
        "meta_ephemeris_type": 0,
        "meta_classification_type": "U",
        "meta_norad_cat_id": 30574,
        "meta_element_set_no": 999,
        "meta_rev_at_epoch": 93695,
        "meta_bstar": 0.0030796939,
        "meta_mean_motion_dot": 3.616e-05,
        "meta_mean_motion_ddot": 0,
        "tle_line1": "1 30574U 99025ALQ 25341.42427508  .00003616  00000+0  30797-2 0  9994",
        "tle_line2": "2 30574  99.3038 145.1236 0218843   1.5584 358.6203 13.77485248936952"
      },
      "geometry": {
        "type": "Point",
        "coordinates": [
          130.4283493457953,
          58.797836908849845
        ]
      }
    },
    {
      "type": "Feature",
      "properties": {
        "norad_id": 30575,
        "name": "FENGYUN 1C DEB",
        "group": "fengyun-1c-debris",
        "lat": -47.73728391484803,
        "lon": 83.30918602195463,
        "alt_km": 747.210902292999,
        "timestamp": "2025-12-08T10:52:03.225027+00:00",
        "meta_object_name": "FENGYUN 1C DEB",
        "meta_object_id": "1999-025ALR",
        "meta_epoch": "2025-12-07T05:12:46.716768",
        "meta_mean_motion": 14.40007148,
        "meta_eccentricity": 0.00539222,
        "meta_inclination": 99.1707,
        "meta_ra_of_asc_node": 71.7472,
        "meta_arg_of_pericenter": 252.7552,
        "meta_mean_anomaly": 136.3959,
        "meta_ephemeris_type": 0,
        "meta_classification_type": "U",
        "meta_norad_cat_id": 30575,
        "meta_element_set_no": 999,
        "meta_rev_at_epoch": 98138,
        "meta_bstar": 0.0016933154,
        "meta_mean_motion_dot": 5.379e-05,
        "meta_mean_motion_ddot": 0,
        "tle_line1": "1 30575U 99025ALR 25341.21720737  .00005379  00000+0  16933-2 0  9996",
        "tle_line2": "2 30575  99.1707  71.7472 0053922 252.7552 136.3959 14.40007148981386"
      },
      "geometry": {
        "type": "Point",
        "coordinates": [
          83.30918602195463,
          -47.73728391484803
        ]
      }
    },
    {
      "type": "Feature",
      "properties": {
        "norad_id": 30577,
        "name": "FENGYUN 1C DEB",
        "group": "fengyun-1c-debris",
        "lat": 81.08582552839492,
        "lon": -63.347965762624675,
        "alt_km": 866.5432033615543,
        "timestamp": "2025-12-08T10:52:03.225037+00:00",
        "meta_object_name": "FENGYUN 1C DEB",
        "meta_object_id": "1999-025ALT",
        "meta_epoch": "2025-12-07T14:47:50.595648",
        "meta_mean_motion": 14.11130935,
        "meta_eccentricity": 0.00285696,
        "meta_inclination": 98.7709,
        "meta_ra_of_asc_node": 15.6669,
        "meta_arg_of_pericenter": 297.1863,
        "meta_mean_anomaly": 225.2223,
        "meta_ephemeris_type": 0,
        "meta_classification_type": "U",
        "meta_norad_cat_id": 30577,
        "meta_element_set_no": 999,
        "meta_rev_at_epoch": 96712,
        "meta_bstar": 0.00084564496,
        "meta_mean_motion_dot": 1.486e-05,
        "meta_mean_motion_ddot": 0,
        "tle_line1": "1 30577U 99025ALT 25341.61655782  .00001486  00000+0  84564-3 0  9990",
        "tle_line2": "2 30577  98.7709  15.6669 0028569 297.1863 225.2223 14.11130935967124"
      },
      "geometry": {
        "type": "Point",
        "coordinates": [
          -63.347965762624675,
          81.08582552839492
        ]
      }
    },
    {
      "type": "Feature",
      "properties": {
        "norad_id": 30579,
        "name": "FENGYUN 1C DEB",
        "group": "fengyun-1c-debris",
        "lat": 23.71312710786009,
        "lon": 3.346876117015658,
        "alt_km": 875.7066370963021,
        "timestamp": "2025-12-08T10:52:03.225047+00:00",
        "meta_object_name": "FENGYUN 1C DEB",
        "meta_object_id": "1999-025ALV",
        "meta_epoch": "2025-12-07T20:15:07.603200",
        "meta_mean_motion": 14.05241521,
        "meta_eccentricity": 0.00537078,
        "meta_inclination": 98.8071,
        "meta_ra_of_asc_node": 6.6602,
        "meta_arg_of_pericenter": 117.0365,
        "meta_mean_anomaly": 68.6655,
        "meta_ephemeris_type": 0,
        "meta_classification_type": "U",
        "meta_norad_cat_id": 30579,
        "meta_element_set_no": 999,
        "meta_rev_at_epoch": 96388,
        "meta_bstar": 0.00050737842,
        "meta_mean_motion_dot": 7.89e-06,
        "meta_mean_motion_ddot": 0,
        "tle_line1": "1 30579U 99025ALV 25341.84383800  .00000789  00000+0  50738-3 0  9997",
        "tle_line2": "2 30579  98.8071   6.6602 0053707 117.0365  68.6655 14.05241521963889"
      },
      "geometry": {
        "type": "Point",
        "coordinates": [
          3.346876117015658,
          23.71312710786009
        ]
      }
    }
  ]
}